[{"OBJECT_NAME":"CANX-2","OBJECT_ID":"2008-021H","EPOCH":"2026-03-09T21:45:30.862944","MEAN_MOTION":15.04798248,"ECCENTRICITY":0.00113052,"INCLINATION":97.8556,"RA_OF_ASC_NODE":46.8625,"ARG_OF_PERICENTER":28.5783,"MEAN_ANOMALY":331.606,"EPHEMERIS_TYPE":0,"CLASSIFICATION_TYPE":"U","NORAD_CAT_ID":32790,"ELEMENT_SET_NO":999,"REV_AT_EPOCH":96987,"BSTAR":0.0003958982,"MEAN_MOTION_DOT":5.531e-5,"MEAN_MOTION_DDOT":0},{"OBJECT_NAME":"STARLINK-5647","OBJECT_ID":"2023-013AA","EPOCH":"2026-03-09T00:41:39.977088","MEAN_MOTION":15.02529384,"ECCENTRICITY":8.646e-5,"INCLINATION":43.0032,"RA_OF_ASC_NODE":303.5985,"ARG_OF_PERICENTER":280.4764,"MEAN_ANOMALY":79.5981,"EPHEMERIS_TYPE":0,"CLASSIFICATION_TYPE":"U","NORAD_CAT_ID":55355,"ELEMENT_SET_NO":999,"REV_AT_EPOCH":17160,"BSTAR":-5.2931989e-5,"MEAN_MOTION_DOT":-9.18e-6,"MEAN_MOTION_DDOT":0}]
